{
    "links": {
        "self": "http://www.neowsapp.com/rest/v1/neo/3599684?api_key=iIulBulltgU6a56xZRHN4H3l9WmuAYTsLGpBGhQ2"
    },
    "id": "3599684",
    "neo_reference_id": "3599684",
    "name": "(2012 DL14)",
    "designation": "2012 DL14",
    "nasa_jpl_url": "http://ssd.jpl.nasa.gov/sbdb.cgi?sstr=3599684",
    "absolute_magnitude_h": 24.0,
    "estimated_diameter": {
        "kilometers": {
            "estimated_diameter_min": 0.0421264611,
            "estimated_diameter_max": 0.0941976306
        },
        "meters": {
            "estimated_diameter_min": 42.1264610556,
            "estimated_diameter_max": 94.1976305719
        },
        "miles": {
            "estimated_diameter_min": 0.0261761612,
            "estimated_diameter_max": 0.0585316759
        },
        "feet": {
            "estimated_diameter_min": 138.2101784897,
            "estimated_diameter_max": 309.0473542854
        }
    },
    "is_potentially_hazardous_asteroid": false,
    "close_approach_data": [
        {
            "close_approach_date": "2012-02-13",
            "close_approach_date_full": "2012-Feb-13 04:55",
            "epoch_date_close_approach": 1329108900000,
            "relative_velocity": {
                "kilometers_per_second": "2.1277291537",
                "kilometers_per_hour": "7659.8249534246",
                "miles_per_hour": "4759.5173439765"
            },
            "miss_distance": {
                "astronomical": "0.1598049137",
                "lunar": "62.1641114293",
                "kilometers": "23906474.705053819",
                "miles": "14854794.5557439422"
            },
            "orbiting_body": "Earth"
        }
    ],
    "orbital_data": {
        "orbit_id": "6",
        "orbit_determination_date": "2017-04-06 08:50:51",
        "first_observation_date": "2012-02-23",
        "last_observation_date": "2012-03-13",
        "data_arc_in_days": 19,
        "observations_used": 24,
        "orbit_uncertainty": "7",
        "minimum_orbit_intersection": ".158632",
        "jupiter_tisserand_invariant": "4.575",
        "epoch_osculation": "2459000.5",
        "eccentricity": ".2221515757134585",
        "semi_major_axis": "1.469425014960664",
        "inclination": "3.996702904514271",
        "ascending_node_longitude": "339.3013189756509",
        "orbital_period": "650.6082561552965",
        "perihelion_distance": "1.14298993249438",
        "perihelion_argument": "156.7406017723709",
        "aphelion_distance": "1.795860097426948",
        "perihelion_time": "2459214.968084170344",
        "mean_anomaly": "241.3287265095902",
        "mean_motion": ".553328360951617",
        "equinox": "J2000",
        "orbit_class": {
            "orbit_class_type": "AMO",
            "orbit_class_description": "Near-Earth asteroid orbits similar to that of 1221 Amor",
            "orbit_class_range": "1.017 AU < q (perihelion) < 1.3 AU"
        }
    },
    "is_sentry_object": false
}